C/2022 S3 (PANSTARRS),h,01/21.5599/2023,78.4657,157.2272,267.9983,1.000372,0.839157,2000,17.0,4.0
# From MPC185657
C/2022 S4 (Lemmon),e,101.2097,220.1795,268.5616,1444,0.0000180,0.99808736,0.0000,07/18.7960/2024,2000,g  8.0,4.0
# From MPEC 2023-HD1
C/2022 S5 (PANSTARRS),e,136.5010,214.8656,232.7882,20.52011,0.0106031,0.89390493,11.3149,10/30.0/2025,2000,g 15.0,4.0
# From MPEC 2024-O39
C/2022 T1 (Lemmon),h,02/17.4647/2024,22.5406,236.9116,324.2912,1.000472,3.443893,2000,9.0,4.0
# From MPEC 2025-UQ3
C/2022 U1 (Leonard),h,03/26.1617/2024,128.1461,72.5296,78.6179,1.000467,4.202218,2000,8.5,4.0
# From MPEC 2023-VM5
C/2022 U2 (ATLAS),e,48.2525,304.3901,148.0375,98.73485,0.0010046,0.98652517,0.0000,01/14.2695/2023,2000,g 16.0,4.0
# From MPC188409
C/2022 U3 (Bok),e,33.6613,272.7871,189.1428,32602,0.0000002,0.99985193,0.0000,07/28.6785/2024,2000,g  7.5,4.0
# From MPEC 2023-W26
C/2022 U4 (Bok),e,52.0572,132.9173,88.9759,2951,0.0000061,0.99901843,0.0000,08/03.6732/2023,2000,g 10.5,4.0
# From MPEC 2024-H50
C/2022 V2 (Lemmon),e,98.9047,332.8444,168.9611,36.63794,0.0044443,0.94364609,3.2363,10/30.0/2025,2000,g 12.0,4.0
# From MPEC 2023-CD7
P/2022 W1 (Rankin),e,13.4627,38.8347,17.9503,6.976605,0.0534857,0.51635291,60.9700,10/30.0/2025,2000,g 12.5,4.0
# From MPEC 2024-EF7
C/2022 W2 (ATLAS),e,63.4963,320.4293,123.3308,342.1440,0.0001557,0.99086408,0.0000,03/08.6943/2023,2000,g 11.5,4.0
# From MPEC 2024-C04
C/2022 W3 (Leonard),e,103.5865,132.3163,116.5028,277.5581,0.0002131,0.99496960,0.0000,06/22.8744/2023,2000,g 13.0,4.0
# From MPEC 2023-M14
C/2022 Y1 (Hogan),e,18.8563,285.8726,174.9108,12.62317,0.0219761,0.76538240,23.4540,10/30.0/2025,2000,g 13.0,4.0
# From MPEC 2023-TM6
C/2022 Y2 (Lemmon),e,165.9047,216.4198,105.5415,19.76160,0.0112194,0.87134353,10.6855,10/30.0/2025,2000,g 13.5,4.0
# From MPEC 2024-GJ3
C/2023 A1 (Leonard),e,94.7450,318.2526,159.2771,221.8452,0.0002983,0.99171995,0.0000,03/18.5417/2023,2000,g 14.5,4.0
# From MPEC 2023-J95
C/2023 A2 (SWAN),e,94.7055,94.5112,142.4721,397.4212,0.0001244,0.99762433,0.0000,01/20.3683/2023,2000,g 13.5,4.0
# From MPEC 2025-UQ3
C/2023 A3 (Tsuchinshan-ATLAS),h,09/27.7510/2024,139.1099,21.5951,308.5285,1.000146,0.391587,2000,6.5,3.2
# From MPEC 2024-F34
P/2023 B1 (PANSTARRS),e,14.5880,78.5614,81.7969,7.068311,0.0524482,0.13118593,47.6660,10/30.0/2025,2000,g  5.5,4.0
# From MPEC 2023-XP6
C/2023 B2 (ATLAS),e,40.7658,218.0730,317.3664,601.8896,0.0000667,0.99710921,0.0000,03/10.6883/2023,2000,g 14.5,4.0
# From MPEC 2023-F81
P/2023 B3 (PANSTARRS),e,9.1560,153.9783,240.4040,4.551238,0.1015102,0.12214592,190.8779,10/30.0/2025,2000,g 10.5,4.0
# From MPEC 2025-UQ3
C/2023 C2 (ATLAS),e,48.3223,301.0058,357.4374,2063,0.0000105,0.99885202,0.0000,11/16.7498/2024,2000,g  7.0,4.0
# From MPEC 2024-D33
C/2023 E1 (ATLAS),e,38.2846,164.5327,105.9254,19.22141,0.0116957,0.94655969,9.9673,10/30.0/2025,2000,g 15.5,4.0
# From MPEC 2023-N01
C/2023 F1 (PANSTARRS),e,131.7042,25.3031,216.7341,241.7156,0.0002623,0.99292221,0.0000,06/27.9701/2023,2000,g 16.0,4.0
# From MPC186630
C/2023 F3 (ATLAS),h,02/02.6140/2025,145.9632,109.4674,265.5353,1.003074,5.190862,2000,6.0,4.0
# From MPEC 2025-UQ3
C/2023 H1 (PANSTARRS),e,21.7834,292.6470,333.7400,745.3649,0.0000484,0.99403340,0.0000,11/28.5635/2024,2000,g  8.5,4.0
# From MPEC 2024-GJ3
C/2023 H2 (Lemmon),e,113.7411,217.0910,150.7048,249.4981,0.0002501,0.99641041,0.0000,10/29.1598/2023,2000,g 14.0,4.0
# From MPC186630
C/2023 H3 (PANSTARRS),e,2.4884,55.0870,193.2455,13.61521,0.0196186,0.61580389,12.1613,10/30.0/2025,2000,g 10.0,4.0
# From MPEC 2023-SQ0
A/2023 H4,e,76.5705,230.8266,65.0108,139.9002,0.0005956,0.98481538,0.0000,08/08.5504/2023,2000,g 18.0,2.0
# From MPEC 2025-UQ3
C/2023 H5 (Lemmon),h,06/30.3401/2025,97.8547,159.4765,60.1091,1.000460,4.312643,2000,7.0,4.0
# From MPEC 2024-UA9
P/2023 JN16 (Lemmon),e,3.7014,11.8484,353.3621,2.697245,0.2224967,0.14724944,67.3617,10/30.0/2025,2000,g 14.0,4.0
# From MPEC 2024-GJ3
C/2023 K1 (ATLAS),e,137.9977,223.6961,337.4067,586.0368,0.0000695,0.99652128,0.0000,09/07.4630/2023,2000,g 13.0,4.0
# From MPEC 2023-N01
P/2023 M1 (PANSTARRS),e,12.2891,216.8600,79.6937,6.838762,0.0551109,0.58662536,37.7947,10/30.0/2025,2000,g 13.5,4.0
# From MPEC 2024-TD8
P/2023 M2 (PANSTARRS),e,19.7221,83.2550,243.6313,5.585430,0.0746654,0.36970071,61.5983,10/30.0/2025,2000,g 12.5,4.0
# From MPEC 2024-TP3
P/2023 M4 (ATLAS),e,7.5919,296.2790,320.4564,5.444632,0.0775803,0.27897400,100.5267,10/30.0/2025,2000,g  7.5,4.0
# From MPEC 2024-MB8
C/2023 P1 (Nishimura),e,132.4794,66.8177,116.2280,56.20215,0.0023392,0.99601221,0.0000,09/17.5861/2023,2000,g 10.0,4.0
# From MPC188410
C/2023 Q1 (PANSTARRS),h,12/01.1188/2024,36.6450,7.1238,84.4214,1.004876,2.575970,2000,10.0,4.0
# From MPEC 2024-N80
C/2023 Q2 (PANSTARRS),e,104.0620,92.6800,171.6759,337.9811,0.0001586,0.99050651,0.0000,06/23.8840/2024,2000,g 11.5,4.0
# From MPEC 2025-UQ3
C/2023 R1 (PANSTARRS),h,04/13.4259/2026,149.3165,62.5655,144.2666,1.002386,3.569985,2000,6.0,4.0
# From MPEC 2024-L77
C/2023 R2 (PANSTARRS),h,08/12.1827/2024,30.6916,188.8845,337.3228,1.000312,0.904928,2000,10.5,4.0
# From MPEC 2023-UR6
A/2023 R3,e,12.0778,347.3316,86.9696,738.4325,0.0000491,0.99815912,0.0000,12/18.1611/2023,2000,g 20.0,2.0
# From MPC188410
C/2023 RN3 (ATLAS),e,10.3512,207.0630,130.6325,10.16575,0.0304085,0.49023996,30.8207,10/30.0/2025,2000,g  7.5,4.0
# From MPEC 2025-UQ3
C/2023 RS61 (PANSTARRS),e,19.9460,347.0274,119.4617,11.89808,0.0240153,0.32796137,332.8831,10/30.0/2025,2000,g  6.8,4.0
# From MPC188410
P/2023 S1 (PANSTARRS),e,9.1576,317.2890,180.3236,3.844156,0.1307683,0.31848576,32.3999,10/30.0/2025,2000,g 11.5,4.0
# From MPEC 2023-XP6
C/2023 S2 (ATLAS),e,19.6395,229.4277,78.9864,159.6382,0.0004887,0.99334494,0.0000,10/15.0548/2023,2000,g 15.0,4.0
# From MPEC 2024-P23
C/2023 S3 (Lemmon),e,140.4906,233.8144,281.5104,28.38575,0.0065171,0.97080097,0.0000,01/19.6547/2024,2000,g 16.0,4.0
# From MPEC 2024-BE0
P/2023 T1 (PANSTARRS),e,6.6123,249.5768,202.8846,4.226140,0.1134458,0.33318155,59.5691,10/30.0/2025,2000,g 14.0,4.0
# From MPEC 2024-GJ3
C/2023 T2 (Borisov),e,48.5869,317.5217,111.2289,223.2363,0.0002955,0.99105499,0.0000,12/22.7048/2023,2000,g 14.5,4.0
# From MPC188410
C/2023 T3 (Fuls),e,27.2204,246.0023,302.8496,907.8092,0.0000360,0.99609135,0.0000,01/25.3805/2025,2000,g  8.5,4.0
# From MPEC 2025-UQ3
C/2023 TD22 (Lemmon),e,170.4893,5.5707,32.5413,48.38466,0.0029285,0.95129869,1.1968,10/30.0/2025,2000,g 12.5,4.0
# From MPEC 2025-UQ3
C/2023 U1 (Fuls),e,108.1470,305.8011,255.6554,3045,0.0000059,0.99836693,0.0000,10/13.0328/2024,2000,g  8.0,4.0
# From MPC188411
C/2023 V1 (Lemmon),h,07/13.0556/2025,102.0121,15.0474,103.3176,1.000459,5.092587,2000,8.5,4.0
# From MPC184411
P/2023 V2 (PANSTARRS),e,9.8883,95.4733,330.5172,7.217712,0.0508282,0.56988600,32.2459,10/30.0/2025,2000,g 13.5,4.0
# From MPEC 2024-A43
C/2023 V3 (PANSTARRS),e,40.6642,91.2832,291.8101,12.74586,0.0216596,0.64743318,17.7609,10/30.0/2025,2000,g 11.5,4.0
# From MPEC 2025-UQ3
C/2023 V4 (Camarasa-Duszanowicz),h,05/30.4180/2024,67.1198,66.3271,50.8757,1.001231,1.121977,2000,12.0,4.0
# From MPEC 2024-GJ3
C/2023 V5 (Leonard),h,12/13.9261/2023,73.5320,31.5096,56.9731,1.009450,0.846355,2000,21.5,4.0
# From MPEC 2025-A40
P/2023 V6 (PANSTARRS),e,3.9755,189.5413,192.0470,5.285920,0.0811004,0.17527514,86.5990,10/30.0/2025,2000,g 11.5,4.0
# From MPEC 2024-GJ3
C/2023 X1 (Leonard),e,110.5910,136.9781,321.4738,155.4294,0.0005086,0.99387757,0.0000,10/17.9093/2023,2000,g 13.5,3.2
# From MPEC 2025-UQ3
C/2023 X2 (Lemmon),h,12/28.3454/2025,76.9805,66.3009,64.7861,1.000033,5.088558,2000,8.5,3.2
# From MPEC 2024-A43
P/2023 X3 (PANSTARRS),e,4.4832,62.0153,40.8986,4.246483,0.1126315,0.28617583,62.5925,10/30.0/2025,2000,g 15.5,4.0
# From MPC184411
C/2023 X4 (Hogan),e,11.5924,28.7706,100.6096,9.926703,0.0315135,0.63141169,16.4763,10/30.0/2025,2000,g 12.0,4.0
# From MPEC 2024-DA2
C/2023 X7 (PANSTARRS),h,05/15.2137/2025,69.1184,119.2018,354.4039,1.000987,4.820422,2000,9.0,4.0
# From MPEC 2024-JU4
P/2023 Y1 (Gibbs),e,6.3837,78.8558,51.4903,3.750735,0.1356843,0.44541462,94.9787,10/30.0/2025,2000,g 17.0,4.0
# From MPEC 2025-A40
P/2023 Y2 (Gibbs),e,6.9924,79.2298,16.9243,3.747864,0.1358402,0.39223452,110.2793,10/30.0/2025,2000,g 15.5,4.0
# From MPEC 2025-UQ3
C/2024 A1 (ATLAS),h,06/13.3170/2025,94.5012,112.1387,353.2435,1.001658,3.874789,2000,7.0,4.0
# From MPC182881
C/2024 A2 (ATLAS),e,119.1139,78.1647,295.4888,32.18064,0.0053990,0.94159476,2.9654,10/30.0/2025,2000,g 12.5,4.0
# From MPC188411
C/2024 B1 (Lemmon),h,10/07.7428/2024,70.9013,79.1884,66.2222,1.001116,1.633845,2000,13.0,4.0
# From MPEC 2025-A40
C/2024 B2 (Lemmon),e,99.8730,294.3880,130.3226,1454,0.0000178,0.99719421,0.0000,10/05.5699/2023,2000,g 11.5,4.0
# From MPC185658
C/2024 C1 (PANSTARRS),e,14.2267,83.8100,94.4981,10.58871,0.0286048,0.58324115,12.1523,10/30.0/2025,2000,g 11.5,4.0
# From MPEC 2024-JU4
C/2024 C2 (PANSTARRS),e,27.2843,66.4488,87.5979,16.23952,0.0150607,0.44631729,3.4961,10/30.0/2025,2000,g  6.0,4.0
# From MPC184412
C/2024 C3 (PANSTARRS),e,22.4515,359.7025,159.7188,11.67462,0.0247081,0.42495677,17.8098,10/30.0/2025,2000,g  9.0,4.0
# From MPEC 2024-Q20
C/2024 C4 (ATLAS),e,79.2822,220.6607,321.4895,83.23903,0.0012978,0.98233883,0.0000,01/30.1949/2024,2000,g 14.5,4.0
# From MPC185658
C/2024 D1 (Lemmon),e,132.4486,179.6569,125.7883,12930,0.0000007,0.99948242,0.0000,12/03.4676/2027,2000,g  7.3,4.0
# From MPEC 2025-UQ3
C/2024 E1 (Wierzchos),h,01/20.7673/2026,75.2398,108.0795,243.6272,1.000078,0.566087,2000,7.0,4.0
# From MPEC 2024-JU4
C/2024 E2 (Bok),e,155.6521,135.6584,358.1764,51.32320,0.0026806,0.85003051,1.9715,10/30.0/2025,2000,g  8.0,4.0
# From MPEC 2024-JU4
P/2024 F1 (PANSTARRS),e,7.0049,251.5404,229.5885,3.444289,0.1541895,0.46001771,113.3512,10/30.0/2025,2000,g 16.0,4.0
# From MPC188411
C/2024 F2 (PANSTARRS),e,13.7440,138.9389,112.8858,9.945883,0.0314224,0.60109718,14.3927,10/30.0/2025,2000,g 11.0,4.0
# From MPEC 2024-UA9
